{"type": "FeatureCollection", "features": [ {"type": "Feature", "properties": {"norad_id": 30662, "name": "FENGYUN 1C DEB", "group": "fengyun-1c-debris", "lat": 14.319431904931845, "lon": -132.72945640281682, "alt_km": 822.3422077025716, "timestamp": "2025-12-14T14:39:29.648399+00:00", "meta": {"OBJECT_NAME": "FENGYUN 1C DEB", "OBJECT_ID": "1999-025APU", "EPOCH": "2025-12-13T09:28:03.255168", "MEAN_MOTION": 14.22367295, "ECCENTRICITY": 0.00330397, "INCLINATION": 99.0535, "RA_OF_ASC_NODE": 43.6894, "ARG_OF_PERICENTER": 269.1239, "MEAN_ANOMALY": 152.1087, "EPHEMERIS_TYPE": 0, "CLASSIFICATION_TYPE": "U", "NORAD_CAT_ID": 30662, "ELEMENT_SET_NO": 999, "REV_AT_EPOCH": 96648, "BSTAR": 0.0024107795, "MEAN_MOTION_DOT": 5.351e-05, "MEAN_MOTION_DDOT": 0}, "tle": {"line1": "1 30662U 99025APU 25347.39448212  .00005351  00000+0  24108-2 0  9996", "line2": "2 30662  99.0535  43.6894 0033039 269.1239 152.1087 14.22367295966482"}}, "geometry": {"type": "Point", "coordinates": [-132.72945640281682, 14.319431904931845]}}, {"type": "Feature", "properties": {"norad_id": 30663, "name": "FENGYUN 1C DEB", "group": "fengyun-1c-debris", "lat": 80.50508899532741, "lon": -173.14083638317368, "alt_km": 798.1935698703546, "timestamp": "2025-12-14T14:39:29.648410+00:00", "meta": {"OBJECT_NAME": "FENGYUN 1C DEB", "OBJECT_ID": "1999-025APV", "EPOCH": "2025-12-13T12:48:36.158976", "MEAN_MOTION": 13.23136688, "ECCENTRICITY": 0.06480917, "INCLINATION": 99.3029, "RA_OF_ASC_NODE": 264.4093, "ARG_OF_PERICENTER": 134.6539, "MEAN_ANOMALY": 230.9331, "EPHEMERIS_TYPE": 0, "CLASSIFICATION_TYPE": "U", "NORAD_CAT_ID": 30663, "ELEMENT_SET_NO": 999, "REV_AT_EPOCH": 89058, "BSTAR": 0.0021112937, "MEAN_MOTION_DOT": 2.723e-05, "MEAN_MOTION_DDOT": 0}, "tle": {"line1": "1 30663U 99025APV 25347.53375184  .00002723  00000+0  21113-2 0  9993", "line2": "2 30663  99.3029 264.4093 0648091 134.6539 230.9331 13.23136688890581"}}, "geometry": {"type": "Point", "coordinates": [-173.14083638317368, 80.50508899532741]}}, {"type": "Feature", "properties": {"norad_id": 30665, "name": "FENGYUN 1C DEB", "group": "fengyun-1c-debris", "lat": 1.9357111443032455, "lon": 140.5758929843578, "alt_km": 807.7634882106577, "timestamp": "2025-12-14T14:39:29.648420+00:00", "meta": {"OBJECT_NAME": "FENGYUN 1C DEB", "OBJECT_ID": "1999-025APX", "EPOCH": "2025-12-13T20:58:05.353248", "MEAN_MOTION": 14.12349472, "ECCENTRICITY": 0.00676385, "INCLINATION": 99.2082, "RA_OF_ASC_NODE": 319.5048, "ARG_OF_PERICENTER": 199.2882, "MEAN_ANOMALY": 193.26, "EPHEMERIS_TYPE": 0, "CLASSIFICATION_TYPE": "U", "NORAD_CAT_ID": 30665, "ELEMENT_SET_NO": 999, "REV_AT_EPOCH": 95986, "BSTAR": 0.0019472195, "MEAN_MOTION_DOT": 3.62e-05, "MEAN_MOTION_DDOT": 0}, "tle": {"line1": "1 30665U 99025APX 25347.87367307  .00003620  00000+0  19472-2 0  9992", "line2": "2 30665  99.2082 319.5048 0067638 199.2882 193.2600 14.12349472959866"}}, "geometry": {"type": "Point", "coordinates": [140.5758929843578, 1.9357111443032455]}}, {"type": "Feature", "properties": {"norad_id": 30666, "name": "FENGYUN 1C DEB", "group": "fengyun-1c-debris", "lat": -74.31688793008385, "lon": 5.75092870794895, "alt_km": 928.2035823409697, "timestamp": "2025-12-14T14:39:29.648430+00:00", "meta": {"OBJECT_NAME": "FENGYUN 1C DEB", "OBJECT_ID": "1999-025APY", "EPOCH": "2025-12-13T22:10:08.328864", "MEAN_MOTION": 14.02556247, "ECCENTRICITY": 0.00612077, "INCLINATION": 98.8222, "RA_OF_ASC_NODE": 331.5035, "ARG_OF_PERICENTER": 140.7754, "MEAN_ANOMALY": 274.7055, "EPHEMERIS_TYPE": 0, "CLASSIFICATION_TYPE": "U", "NORAD_CAT_ID": 30666, "ELEMENT_SET_NO": 999, "REV_AT_EPOCH": 96127, "BSTAR": 0.0002762612, "MEAN_MOTION_DOT": 3.9e-06, "MEAN_MOTION_DDOT": 0}, "tle": {"line1": "1 30666U 99025APY 25347.92370751  .00000390  00000+0  27626-3 0  9998", "line2": "2 30666  98.8222 331.5035 0061207 140.7754 274.7055 14.02556247961279"}}, "geometry": {"type": "Point", "coordinates": [5.75092870794895, -74.31688793008385]}}, {"type": "Feature", "properties": {"norad_id": 30668, "name": "FENGYUN 1C DEB", "group": "fengyun-1c-debris", "lat": -80.86159129218358, "lon": 150.39707738293183, "alt_km": 808.7002437184301, "timestamp": "2025-12-14T14:39:29.648440+00:00", "meta": {"OBJECT_NAME": "FENGYUN 1C DEB", "OBJECT_ID": "1999-025AQA", "EPOCH": "2025-12-13T03:40:01.698816", "MEAN_MOTION": 14.12332649, "ECCENTRICITY": 0.00791453, "INCLINATION": 99.1304, "RA_OF_ASC_NODE": 60.2174, "ARG_OF_PERICENTER": 244.9066, "MEAN_ANOMALY": 176.0532, "EPHEMERIS_TYPE": 0, "CLASSIFICATION_TYPE": "U", "NORAD_CAT_ID": 30668, "ELEMENT_SET_NO": 999, "REV_AT_EPOCH": 96061, "BSTAR": 0.0027317509, "MEAN_MOTION_DOT": 5.139e-05, "MEAN_MOTION_DDOT": 0}, "tle": {"line1": "1 30668U 99025AQA 25347.15279744  .00005139  00000+0  27318-2 0  9998", "line2": "2 30668  99.1304  60.2174 0079145 244.9066 176.0532 14.12332649960619"}}, "geometry": {"type": "Point", "coordinates": [150.39707738293183, -80.86159129218358]}}, {"type": "Feature", "properties": {"norad_id": 30669, "name": "FENGYUN 1C DEB", "group": "fengyun-1c-debris", "lat": -78.54571508827807, "lon": 56.610859077002374, "alt_km": 892.3458885046812, "timestamp": "2025-12-14T14:39:29.648465+00:00", "meta": {"OBJECT_NAME": "FENGYUN 1C DEB", "OBJECT_ID": "1999-025AQB", "EPOCH": "2025-12-13T18:54:24.876288", "MEAN_MOTION": 14.0272974, "ECCENTRICITY": 0.01177895, "INCLINATION": 98.6334, "RA_OF_ASC_NODE": 284.4042, "ARG_OF_PERICENTER": 173.6099, "MEAN_ANOMALY": 253.9109, "EPHEMERIS_TYPE": 0, "CLASSIFICATION_TYPE": "U", "NORAD_CAT_ID": 30669, "ELEMENT_SET_NO": 999, "REV_AT_EPOCH": 95468, "BSTAR": 0.0015318971, "MEAN_MOTION_DOT": 2.476e-05, "MEAN_MOTION_DDOT": 0}, "tle": {"line1": "1 30669U 99025AQB 25347.78778792  .00002476  00000+0  15319-2 0  9994", "line2": "2 30669  98.6334 284.4042 0117789 173.6099 253.9109 14.02729740954688"}}, "geometry": {"type": "Point", "coordinates": [56.610859077002374, -78.54571508827807]}}, {"type": "Feature", "properties": {"norad_id": 30670, "name": "FENGYUN 1C DEB", "group": "fengyun-1c-debris", "lat": -80.92656319250177, "lon": 106.74363018507736, "alt_km": 872.214026251484, "timestamp": "2025-12-14T14:39:29.648477+00:00", "meta": {"OBJECT_NAME": "FENGYUN 1C DEB", "OBJECT_ID": "1999-025AQC", "EPOCH": "2025-12-13T01:53:53.613600", "MEAN_MOTION": 14.15817501, "ECCENTRICITY": 0.00398978, "INCLINATION": 98.711, "RA_OF_ASC_NODE": 31.5008, "ARG_OF_PERICENTER": 68.7032, "MEAN_ANOMALY": 321.6088, "EPHEMERIS_TYPE": 0, "CLASSIFICATION_TYPE": "U", "NORAD_CAT_ID": 30670, "ELEMENT_SET_NO": 999, "REV_AT_EPOCH": 97157, "BSTAR": 0.00012802699, "MEAN_MOTION_DOT": 2.11e-06, "MEAN_MOTION_DDOT": 0}, "tle": {"line1": "1 30670U 99025AQC 25347.07909275  .00000211  00000+0  12803-3 0  9991", "line2": "2 30670  98.7110  31.5008 0039897  68.7032 321.6088 14.15817501971573"}}, "geometry": {"type": "Point", "coordinates": [106.74363018507736, -80.92656319250177]}}, {"type": "Feature", "properties": {"norad_id": 30671, "name": "FENGYUN 1C DEB", "group": "fengyun-1c-debris", "lat": 75.78776721568748, "lon": -86.61177857228398, "alt_km": 873.8278361809553, "timestamp": "2025-12-14T14:39:29.648488+00:00", "meta": {"OBJECT_NAME": "FENGYUN 1C DEB", "OBJECT_ID": "1999-025AQD", "EPOCH": "2025-12-13T16:25:19.062624", "MEAN_MOTION": 13.95464034, "ECCENTRICITY": 0.01259582, "INCLINATION": 99.2522, "RA_OF_ASC_NODE": 52.3979, "ARG_OF_PERICENTER": 30.7148, "MEAN_ANOMALY": 96.7494, "EPHEMERIS_TYPE": 0, "CLASSIFICATION_TYPE": "U", "NORAD_CAT_ID": 30671, "ELEMENT_SET_NO": 999, "REV_AT_EPOCH": 95208, "BSTAR": 0.0014430887, "MEAN_MOTION_DOT": 2.048e-05, "MEAN_MOTION_DDOT": 0}, "tle": {"line1": "1 30671U 99025AQD 25347.68424841  .00002048  00000+0  14431-2 0  9998", "line2": "2 30671  99.2522  52.3979 0125958  30.7148  96.7494 13.95464034952088"}}, "geometry": {"type": "Point", "coordinates": [-86.61177857228398, 75.78776721568748]}}, {"type": "Feature", "properties": {"norad_id": 30673, "name": "FENGYUN 1C DEB", "group": "fengyun-1c-debris", "lat": -28.085822566945733, "lon": 42.542985580891624, "alt_km": 924.6467737061166, "timestamp": "2025-12-14T14:39:29.648498+00:00", "meta": {"OBJECT_NAME": "FENGYUN 1C DEB", "OBJECT_ID": "1999-025AQF", "EPOCH": "2025-12-13T17:08:54.160800", "MEAN_MOTION": 14.03457112, "ECCENTRICITY": 0.0052673, "INCLINATION": 98.9202, "RA_OF_ASC_NODE": 36.8566, "ARG_OF_PERICENTER": 139.9131, "MEAN_ANOMALY": 346.1532, "EPHEMERIS_TYPE": 0, "CLASSIFICATION_TYPE": "U", "NORAD_CAT_ID": 30673, "ELEMENT_SET_NO": 999, "REV_AT_EPOCH": 96545, "BSTAR": 0.00010743414, "MEAN_MOTION_DOT": 1.27e-06, "MEAN_MOTION_DDOT": 0}, "tle": {"line1": "1 30673U 99025AQF 25347.71451575  .00000127  00000+0  10743-3 0  9997", "line2": "2 30673  98.9202  36.8566 0052673 139.9131 346.1532 14.03457112965456"}}, "geometry": {"type": "Point", "coordinates": [42.542985580891624, -28.085822566945733]}}, {"type": "Feature", "properties": {"norad_id": 30674, "name": "FENGYUN 1C DEB", "group": "fengyun-1c-debris", "lat": -19.6377416361876, "lon": -31.536184453248925, "alt_km": 586.2765626687833, "timestamp": "2025-12-14T14:39:29.648508+00:00", "meta": {"OBJECT_NAME": "FENGYUN 1C DEB", "OBJECT_ID": "1999-025AQG", "EPOCH": "2025-12-13T23:19:05.570400", "MEAN_MOTION": 14.95934311, "ECCENTRICITY": 0.00257233, "INCLINATION": 98.9393, "RA_OF_ASC_NODE": 150.9548, "ARG_OF_PERICENTER": 298.2577, "MEAN_ANOMALY": 61.6044, "EPHEMERIS_TYPE": 0, "CLASSIFICATION_TYPE": "U", "NORAD_CAT_ID": 30674, "ELEMENT_SET_NO": 999, "REV_AT_EPOCH": 97370, "BSTAR": 0.0070610683, "MEAN_MOTION_DOT": 0.0008039, "MEAN_MOTION_DDOT": 0}, "tle": {"line1": "1 30674U 99025AQG 25347.97159225  .00080390  00000+0  70611-2 0  9992", "line2": "2 30674  98.9393 150.9548 0025723 298.2577  61.6044 14.95934311973701"}}, "geometry": {"type": "Point", "coordinates": [-31.536184453248925, -19.6377416361876]}}]}